[{"OBJECT_NAME":"YAOGAN-36 03C","OBJECT_ID":"2022-160E","EPOCH":"2026-03-09T20:06:06.577632","MEAN_MOTION":15.22991504,"ECCENTRICITY":0.00114517,"INCLINATION":35.0077,"RA_OF_ASC_NODE":244.2786,"ARG_OF_PERICENTER":217.8015,"MEAN_ANOMALY":142.1896,"EPHEMERIS_TYPE":0,"CLASSIFICATION_TYPE":"U","NORAD_CAT_ID":54376,"ELEMENT_SET_NO":999,"REV_AT_EPOCH":18289,"BSTAR":-5.118835e-6,"MEAN_MOTION_DOT":-1.61e-6,"MEAN_MOTION_DDOT":0},{"OBJECT_NAME":"STARLINK-6101","OBJECT_ID":"2023-046Y","EPOCH":"2026-03-09T22:00:01.999584","MEAN_MOTION":15.17592192,"ECCENTRICITY":0.00011354,"INCLINATION":42.9997,"RA_OF_ASC_NODE":156.6579,"ARG_OF_PERICENTER":258.2594,"MEAN_ANOMALY":275.2462,"EPHEMERIS_TYPE":0,"CLASSIFICATION_TYPE":"U","NORAD_CAT_ID":56115,"ELEMENT_SET_NO":999,"REV_AT_EPOCH":577,"BSTAR":0.054602024,"MEAN_MOTION_DOT":0.0122169,"MEAN_MOTION_DDOT":0}]
